,address_name,lat,lon,subway_name
0,서울 중구 남대문로5가 84-6,37.5575584582203,126.973398757176,중구
0,서울 중구 남대문로3가 85,37.5611642284858,126.977649383556,중구
0,서울 중구 회현동3가 1-9,37.5605438018047,126.984369581481,중구
0,서울 중구 순화동 1-104,37.5643659237156,126.968909497031,중구
0,서울 중구 서애로 21,37.5604005588433,126.997429323341,중구
0,서울 중구 회현동1가 190,37.5592055001082,126.979868843746,중구
0,서울 중구 신당동 336-3,37.5592935543259,127.012841309292,중구
0,서울 중구 신당동 387-3,37.5609974210083,127.012068683528,중구
0,서울 중구 북창동 98,37.5622011645131,126.977538493439,중구
0,서울 중구 신당동 843,37.5581689025054,127.017895622274,중구
0,서울 중구 서소문동 21-1,37.5640585979842,126.975860739969,중구
0,서울 중구 남산동2가 27-1,37.5587294777895,126.985909638371,중구
0,서울 중구 신당동 348-152,37.554854981366,127.011880505639,중구
0,서울 중구 신당동 368-67,37.5535762586769,127.010240461683,중구
0,서울 중구 충무로5가 85-4,37.5612652566452,126.998006296276,중구
0,서울 중구 남대문로5가 21-1,37.5589629957983,126.97492243505,중구
0,서울 중구 회현동2가 87,37.5594031619007,126.983218672682,중구
0,서울 중구 장충동2가 193-239,37.5589287782669,127.002659924029,중구
0,서울 중구 을지로2가 195-3,37.5648885139649,126.984497141734,중구
0,서울 중구 명동2가 2-17,37.5637659354562,126.985709369412,중구
0,서울 중구 소공로 66,37.56107541502,126.982014268888,중구
0,서울 중구 충무로2가 62-10,37.5613838734979,126.987217526316,중구
0,서울 중구 남대문로 68,37.5631099932315,126.98226380533,중구
0,서울 중구 충무로4가 132-3,37.5616567439048,126.995074286686,중구
0,서울 중구 남대문로 7,37.560848129852,126.976570518502,중구
0,서울 중구 동호로17길 295,37.5483764768575,127.006943208627,중구
0,서울 중구 청계천로 318,37.5693565845148,127.013791492597,중구
0,서울 중구 신당동 347-332,37.5557475509863,127.012355637829,중구
0,서울 중구 무교동 21-3,37.567049943283,126.97939087827,중구
0,서울 중구 예장동 8-35,37.5594417917473,126.988248582886,중구
0,서울 중구 마장로 89,37.568486897057,127.019815581351,중구
0,서울 종로구 신문로1가 1-1,37.5704819528169,126.976183539859,종로구
0,서울 종로구 내자동 61-1,37.5762979846603,126.972156234425,종로구
0,서울 종로구 명륜1가 93,37.5860707943932,126.996973184385,종로구
1,서울 종로구 명륜2가 93,37.5851166695683,126.998316104808,종로구
2,서울 종로구 명륜4가 93,37.5820410397443,127.001608991725,종로구
0,서울 종로구 창신동 464-16,37.5712580694518,127.010983758338,종로구
0,서울 종로구 동숭동 28,37.5831675004586,127.003838565045,종로구
0,서울 종로구 연건동 78-2,37.57841336356,127.001918877466,종로구
0,서울 종로구 명륜4가 187,37.5825425372877,126.998768340952,종로구
0,서울 종로구 율곡로 271,37.5732025034686,127.007591999269,종로구
0,서울 종로구 삼청동 22,37.5871118806248,126.981811453903,종로구
1,서울 종로구 사간동 22,37.577996163699,126.981201671872,종로구
0,서울 종로구 신교동 36,37.5836946146195,126.969642346633,종로구
0,서울 종로구 관철동 14-10,37.5697001892209,126.985912326136,종로구
0,서울 종로구 필운동 41,37.577964175582,126.967503468035,종로구
0,서울 종로구 와룡동 25,37.5767791647096,126.990890682097,종로구
0,서울 종로구 원서동 45,37.5828367769828,126.989335957608,종로구
0,서울 종로구 평창동 97-9,37.611621950218,126.974757074601,종로구
0,서울 종로구 행촌동 210-113,37.5750413085004,126.961938433509,종로구
0,서울 종로구 홍지동 94-2,37.6001582147864,126.958532034362,종로구
0,서울 종로구 필운대로 39,37.5795343715367,126.968626958953,종로구
0,서울 종로구 계동 115-1,37.5794160579797,126.986620206907,종로구
0,서울 종로구 종로2가 44,37.5705951435083,126.989303517965,종로구
0,서울 종로구 종로6가 238-6,37.5726092482619,127.004956205994,종로구
0,서울 종로구 종로6가 247-1,37.5714331922754,127.006541006869,종로구
0,서울 종로구 창신동 154-1,37.572327122596,127.012565756715,종로구
0,서울 종로구 충신동 52-2,37.5758860707138,127.005083664779,종로구
0,서울 종로구 필운동 163,37.5771719092238,126.969444846296,종로구
0,서울 종로구 혜화동 111-7,37.5858391865198,127.000572097401,종로구
0,서울 종로구 평창동 343-1,37.6069523159199,126.965857889774,종로구
0,서울 종로구 동숭길 143,37.5832648449695,127.002438547712,종로구
0,서울 용산구 청파동3가 114-3,37.5441654310173,126.966805486096,용산구
0,서울 용산구 한강로2가 93-4,37.5318873900314,126.970823471631,용산구
0,서울 용산구 보광동 22-1,37.5271047569769,127.002499845248,용산구
0,서울 용산구 신창동 59-4,37.5352726841211,126.955654108115,용산구
0,서울 용산구 원효로4가 117-8,37.5327609383912,126.952126901193,용산구
0,서울 용산구 삼개로 60,37.5350715443607,126.947642942696,용산구
0,서울 용산구 한강로2가 2-11,37.5315404241507,126.969090683958,용산구
0,서울 용산구 이태원로54길 11,37.5378845228775,127.002095478927,용산구
0,서울 용산구 한남동 795-2,37.5424246498513,127.002685702384,용산구
0,서울 용산구 용산동2가 39-16,37.541923297983,126.987170835854,용산구
0,서울 용산구 원효로3가 56-4,37.5336453542006,126.95828524651,용산구
0,서울 용산구 원효로2가 61-7,37.5349652906078,126.963355440215,용산구
0,서울 용산구 이태원동 368-4,37.5368839834605,126.988731180861,용산구
0,서울 용산구 이태원동 20-5,37.5315159523619,126.996739159937,용산구
0,서울 용산구 한강로2가 2,37.5329605635435,126.968340097022,용산구
1,서울 용산구 한강로2가 2-8,37.5322146493411,126.969810417481,용산구
0,서울 용산구 이촌동 300-23,37.5193300950348,126.975026539164,용산구
0,서울 용산구 갈월동 53-19,37.5455190756412,126.973918811516,용산구
0,서울 용산구 이촌로72길 62,37.517820588578,126.970850893942,용산구
0,서울 용산구 이촌동 362-1,37.515253380958,126.98173310142,용산구
0,서울 용산구 청파로 395,37.554867209569,126.968744137602,용산구
0,서울 용산구 서빙고로 35,37.5247695394853,126.968610877882,용산구
0,서울 용산구 원효로53길 8,37.5360235792578,126.962128441498,용산구
0,서울 용산구 이촌로 303,37.5189128959625,126.98115440183,용산구
0,서울 용산구 산천동 77-4,37.5344136499335,126.951698056537,용산구
0,서울 용산구 서계동 237-7,37.5532408809885,126.96480412364,용산구
0,서울 용산구 한강로3가 40-999,37.5297680649234,126.964300393659,용산구
0,서울 용산구 문배동 24-21,37.5367545540992,126.968551771604,용산구
0,서울 용산구 후암동 105-64,37.5485489818307,126.977558659825,용산구
0,서울 용산구 한남동 28-11,37.5342733481332,127.010117552464,용산구
0,서울 용산구 청파로73길 7,37.549809582395,126.96922222094,용산구
0,서울 용산구 보광동 238-1,37.530580189228,126.997422767031,용산구
0,서울 용산구 이촌로14길 11-6,37.5270679291601,126.954322442255,용산구
0,서울 용산구 청파로47나길 35,37.5464408021043,126.967408637007,용산구
0,서울 성동구 마장로39길 36,37.5681263767456,127.043711109071,성동구
0,서울 성동구 장터길 34,37.5481743997868,127.019612621523,성동구
0,서울 성동구 고산자로 269,37.5636973196685,127.035773854876,성동구
0,서울 성동구 무학로2길 41,37.5629255887125,127.034349622777,성동구
0,서울 성동구 마조로1길 32,37.5602401877062,127.039474565742,성동구
0,서울 성동구 행당로 35,37.5558884003779,127.023481346734,성동구
0,서울 성동구 성덕정길 128,37.536532967552,127.057582651232,성동구
0,서울 성동구 사근동10길 16,37.5603921797151,127.049099090913,성동구
0,서울 성동구 왕십리로 지하 374,37.5644687111181,127.029031221392,성동구
0,서울 성동구 사근동길 10,37.5602139226699,127.04221216329,성동구
0,서울 성동구 행당로6길 2,37.5553937219904,127.025371864252,성동구
0,서울 성동구 용답9길 7-1,37.5652599877346,127.05081527569,성동구
0,서울 성동구 왕십리로20길 26,37.5640088503195,127.035587812375,성동구
0,서울 성동구 상원8길 1,37.5489208397177,127.048267961626,성동구
0,서울 성동구 성수일로4길 25,37.5425050119214,127.051865849456,성동구
0,서울 성동구 광나루로 238,37.549222979538,127.056137010684,성동구
0,서울 성동구 성덕정길 145,37.5365418153962,127.059544814571,성동구
0,서울 성동구 무학봉15가길 7,37.5610977698902,127.030278762471,성동구
0,서울 성동구 마조로5길 8,37.5601253228753,127.040238925747,성동구
0,서울 광진구 능동로13길 69,37.5447248260118,127.069066592286,광진구
0,서울 광진구 동일로 174,37.5475289671174,127.0674170235,광진구
0,서울 광진구 능동로 209,37.5516081379459,127.073183188315,광진구
0,서울 광진구 용마산로3길 32,37.5561974021046,127.086216094176,광진구
0,서울 광진구 면목로17길 6,37.5705538056395,127.082788533171,광진구
0,서울 광진구 광장로 71-1,37.547729737769,127.105116670533,광진구
0,서울 광진구 아차산로 375,37.5370799042659,127.084368022992,광진구
0,서울 광진구 뚝섬로 620,37.5322230888771,127.078445196242,광진구
0,서울 광진구 뚝섬로34길 25-19,37.5332248164282,127.070449641356,광진구
0,서울 광진구 동일로18길 11,37.5400782136005,127.063572602365,광진구
0,서울 광진구 광나루로24길 14,37.545650327825,127.076248825469,광진구
0,서울 광진구 능동로13길 15,37.5427937007399,127.070913637391,광진구
0,서울 광진구 군자로3길 14,37.5446642769124,127.07044263912,광진구
0,서울 광진구 군자로 141,37.5543077590397,127.074826250644,광진구
0,서울 광진구 아차산로39길 16,37.5387507445411,127.076804484743,광진구
0,서울 광진구 자양로13길 47,37.5341672695454,127.08189441761,광진구
0,서울 광진구 뚝섬로52라길 3,37.5299090880139,127.078790548977,광진구
0,서울 광진구 아차산로51길 62,37.5397413502913,127.085021066015,광진구
0,서울 광진구 능동로 143,37.5435937200434,127.072067901454,광진구
0,서울 광진구 동일로22길 59,37.5416996505224,127.067631177115,광진구
0,서울 광진구 능동로 442,37.5680551176621,127.085758652785,광진구
0,서울 광진구 용마산로8가길 25,37.5607438646152,127.088606742608,광진구
0,서울 광진구 강변역로 50,37.5345385101597,127.094184050922,광진구
0,서울 동대문구 용두동 52-1,37.5774721150259,127.037455336722,동대문구
0,서울 동대문구 용두동 24-1,37.5779509183678,127.038803537111,동대문구
0,서울 동대문구 회기로 14,37.5910088520518,127.037909706614,동대문구
0,서울 동대문구 답십리동 765,37.5709011704261,127.064874179288,동대문구
0,서울 동대문구 답십리동 497-1,37.5694836071848,127.050343859662,동대문구
0,서울 동대문구 신설동 98-32,37.5758763497689,127.024882977409,동대문구
0,서울 동대문구 신설동 97-8,37.5745949976483,127.026348521185,동대문구
0,서울 동대문구 용두동 233-14,37.5777982935285,127.0279574182,동대문구
0,서울 동대문구 용두동 730-1,37.5812454403624,127.027812889591,동대문구
0,서울 동대문구 용두동 792-3,37.5765174152984,127.036613404021,동대문구
0,서울 동대문구 이문동 299-7,37.5978146460149,127.06304225611,동대문구
0,서울 동대문구 장안동 385-1,37.5714768033806,127.069181394086,동대문구
0,서울 동대문구 제기로6길 4,37.5862069273241,127.034361563438,동대문구
0,서울 동대문구 휘경동 319-13,37.589759429633,127.056812826462,동대문구
0,서울 동대문구 장안동 466-5,37.5613590070687,127.069901950155,동대문구
0,서울 동대문구 용두동 102-117,37.5757530557783,127.032458779753,동대문구
0,서울 동대문구 한천로17길 23,37.5699396832603,127.062772667603,동대문구
0,서울 동대문구 천호대로31길 50,37.5756043844183,127.041409404144,동대문구
0,서울 동대문구 장안동 305-1,37.5751329267489,127.071637321878,동대문구
0,서울 동대문구 천호대로89길 16,37.562464818124,127.068487504813,동대문구
0,서울 동대문구 장한로17길 9,37.5675840250431,127.067988941277,동대문구
0,서울 동대문구 사가정로13가길 29,37.5795535877756,127.059600674153,동대문구
0,서울 동대문구 제기로20길 32,37.5851889499995,127.041483209904,동대문구
0,서울 동대문구 경희대로 23,37.5937762050989,127.050741696591,동대문구
0,서울 동대문구 한빛로 24,37.5776353865367,127.025606502202,동대문구
0,서울 동대문구 고산자로28길 39,37.5749707667743,127.04048067638,동대문구
0,서울 동대문구 전농로38길 89,37.5879111425513,127.056230024188,동대문구
0,서울 동대문구 장안동 374-11,37.5688170273095,127.06878411485,동대문구
0,서울 동대문구 장안동 384-3,37.5707223777205,127.069526398215,동대문구
0,서울 동대문구 장안동 403-1,37.5653953171338,127.063305933083,동대문구
0,서울 동대문구 회기동 39-4,37.593514874192,127.052489012724,동대문구
0,서울 동대문구 휘경동 57-3,37.5831741854974,127.068640179318,동대문구
0,서울 동대문구 회기동 16-92,37.5916213526662,127.052886019314,동대문구
0,서울 동대문구 제기동 137-37,37.5881607501869,127.035511334022,동대문구
0,서울 동대문구 장한로22길 19,37.5694520941099,127.071438770852,동대문구
0,서울 동대문구 답십리동 244-1,37.5731814031175,127.057218052302,동대문구
0,서울 동대문구 이문로 203,37.6047340597463,127.061875185844,동대문구
0,서울 동대문구 신설동 76-25,37.5764009973773,127.024458859419,동대문구
0,서울 동대문구 제기동 1158-33,37.5786913692386,127.033139985642,동대문구
0,서울 동대문구 이문동 82-13,37.5953847830446,127.063341068347,동대문구
0,서울 동대문구 장한로 91,37.569150253828,127.06933454445,동대문구
0,서울 동대문구 장안동 359-1,37.5659418854666,127.069509956879,동대문구
0,서울 동대문구 천호대로79길 30,37.5637424562399,127.063275219279,동대문구
0,서울 동대문구 이문동 346-5,37.5942591169931,127.056534525663,동대문구
0,서울 동대문구 답십리로59길 6,37.5730441704061,127.065880235046,동대문구
0,서울 중랑구 면목동 409-47,37.5844809530783,127.088937386289,중랑구
0,서울 중랑구 면목동 104-14,37.5887138528231,127.091017020018,중랑구
0,서울 중랑구 망우동 135-4,37.6009115861207,127.107687079763,중랑구
0,서울 중랑구 묵동 172-26,37.6133283895462,127.078845518589,중랑구
0,서울 중랑구 망우로 504,37.6002713203857,127.10800696916,중랑구
0,서울 중랑구 망우로68길 56,37.5974857988156,127.100902079938,중랑구
0,서울 중랑구 용마산로112길 37,37.5987165472557,127.102580129435,중랑구
0,서울 중랑구 용마산로99길 9,37.5918792308686,127.097434135039,중랑구
0,서울 중랑구 면목로56길 30,37.5839059506219,127.089992445074,중랑구
0,서울 중랑구 용마산로94길 31,37.5888724646377,127.098598572909,중랑구
0,서울 중랑구 면목동 178-30,37.5883981431863,127.076826485209,중랑구
0,서울 중랑구 신내동 646,37.6163256561145,127.092677385305,중랑구
0,서울 중랑구 면목동 497-16,37.5818456340256,127.088102020518,중랑구
0,서울 중랑구 신내로7가길 35,37.6022805443814,127.093872012268,중랑구
0,서울 중랑구 봉화산로56길 60,37.6061299030855,127.098118630529,중랑구
0,서울 중랑구 용마산로 248,37.5752055633554,127.08848531425,중랑구
0,서울 중랑구 면목로69길 16,37.5872526201728,127.086344176161,중랑구
0,서울 중랑구 동일로136길 10,37.6020703012565,127.080116689276,중랑구
0,서울 중랑구 망우로30길 3,37.5930806702101,127.0747508051,중랑구
0,서울 중랑구 상봉동 88-25,37.5957318701924,127.09017891441,중랑구
0,서울 중랑구 신내동 613-71,37.607798892998,127.09681298198,중랑구
0,서울 중랑구 망우동 183,37.6026667647802,127.107632421088,중랑구
0,서울 중랑구 망우동 340-22,37.6006006646591,127.103342001667,중랑구
0,서울 중랑구 면목동 618-1,37.5797999807949,127.088753625216,중랑구
0,서울 중랑구 면목동 185-9,37.5923396517749,127.07664393513,중랑구
0,서울 중랑구 겸재로3길 5,37.5861919106869,127.076366809452,중랑구
0,서울 중랑구 망우로50길 25,37.5959756788178,127.089349085232,중랑구
0,서울 성북구 안암동5가 126-1,37.5871448855954,127.026985172168,성북구
0,서울 성북구 하월곡동 73-21,37.6066603683998,127.040757188373,성북구
0,서울 성북구 동선동1가 100,37.5926305259752,127.017747727361,성북구
0,서울 성북구 삼선교로16길 48,37.5861654826222,127.010814873201,성북구
0,서울 성북구 성북동 184-48,37.5906838353345,127.004346093402,성북구
0,서울 성북구 동소문동6가 116,37.5926746126837,127.015637022838,성북구
0,서울 성북구 정릉동 966-101,37.617221924238,127.002544541438,성북구
0,서울 성북구 종암동 34-6,37.594078208168,127.034251610834,성북구
0,서울 성북구 보문동2가 75-15,37.5850525777757,127.018145475011,성북구
0,서울 성북구 종암동 31-46,37.5921473339326,127.034419097276,성북구
0,서울 성북구 삼양로13길 45,37.6107252648749,127.019671620414,성북구
0,서울 성북구 길음로 33,37.6050832927233,127.022078590713,성북구
0,서울 성북구 종암동 10-178,37.5950275395003,127.036208603611,성북구
0,서울 성북구 석관동 124-34,37.6108572986783,127.063021325277,성북구
0,서울 성북구 보문로32길 69,37.5906002313041,127.019996038051,성북구
0,서울 성북구 보문로34길 88,37.5912578387341,127.020153487073,성북구
0,서울 성북구 보문로30가길 12,37.5892395871957,127.020321307709,성북구
0,서울 성북구 정릉동 413-16,37.6058772257577,127.01142338591,성북구
0,서울 성북구 삼선동1가 266,37.5866188835857,127.009521280959,성북구
0,서울 성북구 화랑로13길 42,37.6051258934925,127.041785101175,성북구
0,서울 성북구 돌곶이로 46,37.6082937208227,127.059894048819,성북구
0,서울 성북구 돌곶이로8바길 39,37.6089335796233,127.063724257296,성북구
0,서울 성북구 화랑로33길 39,37.6118504513558,127.054534098752,성북구
0,서울 성북구 삼선교로18나길 26,37.5878481553957,127.014390793179,성북구
0,서울 성북구 석관동 341-16,37.6074595847851,127.051078742154,성북구
0,서울 성북구 장위동 231-590,37.6141975083783,127.040742273598,성북구
0,서울 성북구 장위동 238-122,37.6159765209282,127.048351256011,성북구
0,서울 성북구 정릉동 266-390,37.6120195992017,127.009773914758,성북구
0,서울 성북구 안암동5가 100-9,37.5864604855266,127.029996018776,성북구
0,서울 성북구 삼선동4가 204-3,37.5903851468308,127.01383126466,성북구
0,서울 성북구 삼선동5가 409,37.5893661088913,127.017358817945,성북구
0,서울 성북구 보문로34다길 31,37.5926264060614,127.020899246809,성북구
0,서울 성북구 동선동3가 234,37.591533688083,127.020354201436,성북구
0,서울 성북구 오패산로17길 40,37.6079715068091,127.033859217361,성북구
0,서울 성북구 정릉로 326,37.6020705942096,127.019323607565,성북구
0,서울 성북구 정릉동 45-39,37.599207319893,127.017701842052,성북구
0,서울 성북구 장위동 238-198,37.613872748082,127.048703837078,성북구
0,서울 성북구 정릉동 372-7,37.608747081343,127.007824610469,성북구
0,서울 성북구 동소문로26가길 40,37.59479315528,127.021156891486,성북구
0,서울 강북구 미아동 138-68,37.6185641653337,127.030192633739,강북구
0,서울 강북구 미아동 450-64,37.615139106557,127.027021562503,강북구
0,서울 강북구 미아동 838-8,37.6201930588758,127.018385538958,강북구
0,서울 강북구 미아동 8-144,37.6138189653901,127.037880169045,강북구
0,서울 강북구 미아동 791-1622,37.6255321640365,127.016312365869,강북구
0,서울 강북구 번동 461-80,37.6394154205514,127.028757166962,강북구
0,서울 강북구 수유동 281-40,37.647271682415,127.013405213519,강북구
0,서울 강북구 도봉로67길 50,37.6297641887448,127.021876197547,강북구
0,서울 강북구 수유동 409,37.6378901487378,127.015863460304,강북구
0,서울 강북구 노해로27길 21,37.6452911241883,127.022412172123,강북구
0,서울 강북구 미아동 217-2,37.6303558023787,127.023610566074,강북구
0,서울 강북구 미아동 693,37.6189957231754,127.020121780548,강북구
0,서울 강북구 번동 412-52,37.6366528215594,127.031571971166,강북구
0,서울 강북구 번동 446-1,37.637438363962,127.02615611168,강북구
0,서울 강북구 번동 447-51,37.6367021474814,127.025844968046,강북구
0,서울 강북구 수유동 1-60,37.6364134755401,127.022293490162,강북구
0,서울 강북구 수유동 223-1,37.6388967112324,127.023070562491,강북구
0,서울 강북구 수유동 230-7,37.6364431672041,127.023434164093,강북구
0,서울 강북구 삼양로19길 25,37.6156943247238,127.021139026425,강북구
0,서울 강북구 번동 526-13,37.6342957907491,127.030401905185,강북구
0,서울 강북구 수유동 338-6,37.6425654295137,127.016653173265,강북구
0,서울 강북구 수유동 730,37.6447090236924,127.018063324688,강북구
0,서울 강북구 수유동 36-1,37.6408843496699,127.019725004447,강북구
0,서울 강북구 수유동 252-122,37.6442033745352,127.022838789388,강북구
0,서울 강북구 미아동 160-11,37.6335518420762,127.023748320327,강북구
0,서울 강북구 수유동 47-4,37.6348936485074,127.022053193246,강북구
0,서울 강북구 미아동 162-48,37.6330631964058,127.024391544188,강북구
0,서울 강북구 번동 464-1,37.6413076329564,127.029628860171,강북구
0,서울 강북구 삼양로73길 36,37.6307514089468,127.01688005713,강북구
0,서울 강북구 수유동 50-1,37.6335885363437,127.021754057181,강북구
0,서울 강북구 삼양로24길 19,37.6174496535601,127.021996503505,강북구
0,서울 강북구 미아동 304-20,37.6260293564484,127.025758690911,강북구
0,서울 강북구 오현로 56,37.6184115650264,127.036475927918,강북구
0,서울 도봉구 쌍문동 423-7,37.6516584602165,127.013576094149,도봉구
0,서울 도봉구 도봉동 554-16,37.6869367803624,127.040658340899,도봉구
0,서울 도봉구 방학동 619,37.6664651385999,127.032369032881,도봉구
0,서울 도봉구 쌍문동 460-234,37.6516304257944,127.023429870102,도봉구
0,서울 도봉구 쌍문동 79-15,37.6522911319356,127.035310337009,도봉구
0,서울 도봉구 쌍문동 294-38,37.6498981119471,127.023848370396,도봉구
0,서울 도봉구 쌍문동 122-53,37.6484303982762,127.031232367262,도봉구
0,서울 도봉구 해등로25길 32,37.6564835805054,127.032824918236,도봉구
0,서울 도봉구 창동 254-23,37.6533324353477,127.045229428934,도봉구
0,서울 도봉구 창동 674-27,37.6461466325772,127.037559367408,도봉구
0,서울 도봉구 창동 603-73,37.6421634363848,127.038784339303,도봉구
0,서울 도봉구 창동 5,37.6528026695744,127.048815828537,도봉구
1,서울 도봉구 창동 5-1,37.6525552180201,127.04891652185,도봉구
0,서울 도봉구 창동 815,37.6610336966577,127.046089315065,도봉구
0,서울 도봉구 방학2동 603-28,37.6681237569871,127.034270649311,도봉구
0,서울 도봉구 쌍문동 667,37.6561932716555,127.037406564345,도봉구
0,서울 도봉구 도봉로106길 86,37.6448682382088,127.037523031403,도봉구
0,서울 도봉구 도당로 133,37.6674486336944,127.041097340025,도봉구
0,서울 도봉구 시루봉로 88,37.6587392473489,127.028059706373,도봉구
0,서울 도봉구 도당로27길 43,37.6693098863844,127.040816021402,도봉구
0,서울 도봉구 도봉산길 12,37.687595297548,127.04442475307,도봉구
0,서울 도봉구 도봉로108길 84,37.6456522122442,127.038553980903,도봉구
0,서울 도봉구 방학동 665,37.6628538929473,127.033105283515,도봉구
0,서울 도봉구 창동 38-2,37.6456940666471,127.053844638697,도봉구
0,서울 도봉구 창동 593-12,37.6432768376523,127.038062022913,도봉구
0,서울 도봉구 쌍문동 423-19,37.6515731130543,127.012989765714,도봉구
0,서울 도봉구 우이천로 367,37.6478841889324,127.024070387404,도봉구
0,서울 노원구 월계동 68-65,37.6166403611156,127.064563678862,노원구
0,서울 노원구 월계동 411-13,37.6212405789613,127.061095726116,노원구
0,서울 노원구 월계로45길 28,37.6268415975561,127.050970904678,노원구
0,서울 노원구 덕릉로60길 234,37.6305239110908,127.04503479647,노원구
0,서울 노원구 마들로3길 37,37.6286067853213,127.062796826548,노원구
0,서울 노원구 중계동 362-3,37.6465114211741,127.07442801206,노원구
0,서울 노원구 하계1동 170-41,37.6355543916865,127.070881719861,노원구
0,서울 노원구 하계동 256-13,37.6398521168624,127.073920463419,노원구
0,서울 노원구 공릉동 568-1,37.6230489504268,127.073135019377,노원구
0,서울 노원구 동일로190길 26,37.6255649508731,127.074725663789,노원구
0,서울 노원구 공릉동 568-1,37.6230489504268,127.073135019377,노원구
0,서울 노원구 동일로190길 26,37.6255649508731,127.074725663789,노원구
0,서울 노원구 섬밭로 134,37.6282976345639,127.06927628137,노원구
0,서울 노원구 공릉동 633-15,37.6193468522893,127.077831649838,노원구
0,서울 노원구 공릉동 408-4,37.6264443920501,127.078896187208,노원구
0,서울 노원구 공릉동 120-5,37.6239958114706,127.089698881895,노원구
0,서울 노원구 공릉로38길 17,37.6233027900856,127.080425266234,노원구
0,서울 노원구 상계동 994,37.6716703580764,127.058031040775,노원구
0,서울 노원구 상계동 1008-34,37.6741062520714,127.056909946417,노원구
0,서울 노원구 동일로237길 46,37.6736636858373,127.052854870816,노원구
0,서울 노원구 상계로23다길 13-8,37.6598474260427,127.068904053591,노원구
0,서울 노원구 노원로28길 73,37.6550154176325,127.070951891067,노원구
0,서울 노원구 상계동 763-6,37.6486896801914,127.061879225724,노원구
0,서울 노원구 상계동 711-13,37.6550936857928,127.059959271357,노원구
0,서울 노원구 상계동,37.66125057554,127.060252770712,노원구
1,서울 노원구 상계1동,37.6799070536743,127.054948904465,노원구
2,서울 노원구 상계2동,37.6574767214579,127.067888030111,노원구
3,서울 노원구 상계3.4동,37.672913304684,127.083231747067,노원구
4,서울 노원구 상계5동,37.6629682202394,127.069407204901,노원구
5,서울 노원구 상계6.7동,37.654886024349,127.066965479758,노원구
6,서울 노원구 상계8동,37.6667506745061,127.051570675496,노원구
7,서울 노원구 상계9동,37.6645282589156,127.063841458137,노원구
8,서울 노원구 상계10동,37.6612613757312,127.060275446198,노원구
0,서울 노원구 상계로 283,37.6692644663173,127.07776133716,노원구
0,서울 노원구 상계동 443-9,37.6619790679127,127.068422310585,노원구
0,서울 노원구 한글비석로8길 41,37.6486635394573,127.077598436703,노원구
0,서울 은평구 연서로 289,37.6216467377358,126.926131661635,은평구
0,서울 은평구 연서로 274,37.6205752618862,126.925096849461,은평구
0,서울 은평구 불광동 312-129,37.6200794432209,126.921620712956,은평구
0,서울 은평구 통일로78길 12-4,37.6179469295871,126.923874945884,은평구
0,서울 은평구 녹번동 117-61,37.6073449733728,126.932421549464,은평구
0,서울 은평구 응암동 745-16,37.5870524747246,126.920132645153,은평구
0,서울 은평구 응암동 732-9,37.5853027269364,126.918391062722,은평구
0,서울 은평구 응암동 579-7,37.5935210516592,126.916862416279,은평구
0,서울 은평구 역촌동 85-41,37.59928973309,126.915335301904,은평구
0,서울 은평구 연서로9길 14,37.6075935049625,126.913563911497,은평구
0,서울 은평구 서오릉로17길 17,37.6135150476568,126.908392344369,은평구
0,서울 은평구 통일로 796,37.616343199117,126.925757582129,은평구
0,서울 은평구 은평터널로7길 2,37.5925615004272,126.906172127572,은평구
0,서울 은평구 갈현로4길 26,37.6011252013344,126.91306361612,은평구
0,서울 은평구 신사동 12-15,37.5996158601261,126.907490670943,은평구
0,서울 은평구 진흥로1길 49,37.6048397652335,126.918177088917,은평구
0,서울 은평구 불광동 301-23,37.617229987562,126.923278420405,은평구
0,서울 은평구 대조동 196-8,37.6170463822036,126.921793003931,은평구
0,서울 은평구 연서로26길 11,37.6168540375284,126.920871330665,은평구
0,서울 은평구 연서로28길 6,37.618137156114,126.920635278986,은평구
0,서울 은평구 통일로 750,37.6123341513595,126.928663502355,은평구
0,서울 은평구 진관3로 15-35,37.6424906932298,126.917321258805,은평구
0,서울 은평구 진관2로 77,37.634569572388,126.926834884276,은평구
0,서울 은평구 진관4로 37,37.644469386862,126.925073996113,은평구
0,서울 은평구 연서로27길 14,37.61815319763,126.918005398375,은평구
0,서울 은평구 갈현로25길 14,37.6175031620905,126.913623233307,은평구
0,서울 은평구 서오릉로20길 20-1,37.6171846959383,126.90957805026,은평구
0,서울 은평구 연서로21길 24-1,37.615352040225,126.915220592788,은평구
0,서울 은평구 갈현동 463-18,37.6142787841035,126.917253172914,은평구
0,서울 서대문구 독립문공원길 17,37.5723811886189,126.955198449007,서대문구
0,서울 서대문구 경기대로 48,37.5634776878328,126.962582343949,서대문구
0,서울 서대문구 연희로 126,37.5687623772299,126.932692770754,서대문구
0,서울 서대문구 연희맛로 38,37.5681772921632,126.931167234651,서대문구
0,서울 서대문구 연희로5길 66,37.565684329876,126.9255303483,서대문구
0,서울 서대문구 가좌로 31,37.5772475512387,126.932003518596,서대문구
1,인천 서구 가좌로 31,37.4771131214332,126.680247983864,서대문구
0,서울 서대문구 통일로37길 18,37.5875518083729,126.943920831298,서대문구
0,서울 서대문구 통일로39길 22,37.588115156445,126.943078936886,서대문구
0,서울 서대문구 증가로 264,37.5840784893459,126.911195329564,서대문구
0,서울 서대문구 거북골로 223,37.5797512053442,126.906649649835,서대문구
0,서울 서대문구 거북골로 170,37.5766580191361,126.911465307596,서대문구
0,서울 서대문구 증가로12나길 101,37.5827126552704,126.919856622613,서대문구
0,서울 서대문구 연세로11길 16,37.5590344807508,126.935893389687,서대문구
0,서울 서대문구 연세로9길 8,37.5585777070086,126.936452088466,서대문구
0,서울 서대문구 연세로4길 12,37.557004893187,126.937742721687,서대문구
0,서울 서대문구 연대동문길 26,37.5635851217872,126.943807505975,서대문구
0,서울 서대문구 봉원사길 6,37.566992071527,126.946752435475,서대문구
0,서울 서대문구 이화여대길 52,37.5644645178259,126.950288837762,서대문구
0,서울 서대문구 이화여대길 7,37.5572344939529,126.94564199236,서대문구
0,서울 서대문구 이화여대3길 6,37.5581091857709,126.945454727473,서대문구
0,서울 마포구 월드컵로 139,37.5603009558986,126.905946283429,마포구
0,서울 마포구 월드컵로36길 18,37.5662578196111,126.903291853915,마포구
0,서울 마포구 성암로3길 14,37.5689531005745,126.911142544136,마포구
0,서울 마포구 망원동 431-43,37.5586873316104,126.900203385418,마포구
0,서울 마포구 월드컵로 83,37.5561915073996,126.909636069042,마포구
0,서울 마포구 망원로 95,37.5579772762258,126.907302010619,마포구
0,서울 마포구 서교동 370-18,37.5525187673389,126.919334438199,마포구
0,서울 마포구 서교동 459-1,37.5557961614174,126.915366085872,마포구
0,서울 마포구 양화로 133,37.55523107395,126.920982708821,마포구
0,서울 마포구 노고산동 56-74,37.5539663748112,126.933939305325,마포구
0,서울 마포구 합정동 395-1,37.5501751841436,126.908116732306,마포구
0,서울 마포구 마포대로 195,37.5524339233655,126.95422378666,마포구
0,서울 마포구 염리동 155-11,37.5469791273051,126.944423458796,마포구
0,서울 마포구 망원동 462-14,37.5557104597091,126.897806714629,마포구
0,서울 마포구 합정동 412-8,37.5484737124135,126.917862475794,마포구
0,서울 마포구 서교동 328-13,37.5550365962279,126.929000069122,마포구
0,서울 마포구 연남동 256-6,37.562804745213,126.922724542247,마포구
0,서울 마포구 신공덕동 12-6,37.5454794748033,126.955637425804,마포구
0,서울 마포구 도화동 344,37.5403629070148,126.948596270249,마포구
1,서울 마포구 마포동 344,37.5361127439927,126.944493640182,마포구
0,서울 마포구 성산동 260-39,37.5595407410003,126.907257405041,마포구
0,서울 마포구 상암동 1752,37.5835469334073,126.879166069383,마포구
0,서울 마포구 동교로17안길 51,37.5565719630348,126.918762270134,마포구
0,서울 마포구 연남동 257-23,37.5619309404296,126.923248690415,마포구
0,서울 마포구 월드컵북로6길 69,37.5597336937564,126.921759687077,마포구
0,서울 마포구 동교동 154-1,37.5590751665916,126.92482831392,마포구
0,서울 마포구 도화4길 88,37.5384794209131,126.950624151645,마포구
0,서울 마포구 양화로 59,37.5506586876484,126.914885960173,마포구
0,서울 마포구 상암산로1길 92,37.5827563946262,126.882098813336,마포구
0,서울 마포구 포은로 42,37.5513207328952,126.907220287584,마포구
0,서울 마포구 성미산로 112,37.5620851781067,126.919574599958,마포구
0,서울 마포구 당인동 12-1,37.5474887278694,126.919942669081,마포구
0,서울 마포구 노고산동 49-22,37.555666790021,126.934033322886,마포구
0,서울 마포구 도화동 563,37.5413216431359,126.948970824054,마포구
0,서울 마포구 연남동 252-1,37.5636438422136,126.922311453113,마포구
0,서울 마포구 망원동 431-55,37.5576374099262,126.899789653801,마포구
0,서울 마포구 서교동 351-9,37.5550983697114,126.920197769205,마포구
0,서울 마포구 서교동 401-10,37.5485178866105,126.918942114088,마포구
0,서울 마포구 서교동 394-67,37.5501296846536,126.915980530543,마포구
0,전남 여수시 서교동 394,34.7417981597642,127.727197874235,마포구
0,서울 마포구 서교동 408-7,37.5500952367449,126.921298543165,마포구
0,서울 양천구 목동중앙남로5길 46,37.5369268492097,126.864387960527,양천구
0,서울 양천구 가로공원로 142,37.5361103129063,126.831717065163,양천구
0,서울 양천구 월정로 15,37.5212371494643,126.843525183706,양천구
0,서울 양천구 안양천로 1071,37.5369818505985,126.886743916495,양천구
0,서울 양천구 오목로 276-6,37.5249902079238,126.867882690257,양천구
0,서울 양천구 오목로 300,37.5248304019543,126.87002254331,양천구
0,서울 양천구 오목로37길 22,37.52696366885,126.856084026068,양천구
0,서울 양천구 목동중앙북로7가길 61,37.5497281786642,126.864177143999,양천구
0,서울 양천구 목동서로 65,37.5361251512716,126.878730311055,양천구
0,서울 양천구 중앙로55길 28,37.5264153001291,126.846342037416,양천구
0,서울 양천구 중앙로54길 21,37.5265610385887,126.852094944474,양천구
0,서울 양천구 목동동로 130,37.5149990018814,126.871236888208,양천구
0,서울 양천구 신월로 321,37.5217657721739,126.856513468306,양천구
0,서울 양천구 목동동로 50,37.5120947920338,126.860291121004,양천구
0,서울 양천구 신월로 150,37.5171024242236,126.840475066317,양천구
0,서울 강서구 가양동 116-2,37.5670859924878,126.842443321669,강서구
0,서울 강서구 등촌동 631,37.5574006212705,126.861386440323,강서구
0,서울 강서구 화곡3동 1036-35,37.5427603915248,126.836451421075,강서구
0,서울 강서구 화곡동 986-1,37.5504227594714,126.847360710166,강서구
0,서울 강서구 곰달래로53길 121,37.5362917426865,126.856022541039,강서구
0,서울 강서구 공항대로45가길 11,37.5560635209115,126.853677792942,강서구
0,서울 강서구 방화동 559-5,37.5724679372475,126.81002402348,강서구
0,서울 강서구 강서로47길 108,37.553565372328,126.830534237555,강서구
0,서울 강서구 강서로8길 200,37.5309425088298,126.859315811227,강서구
0,서울 강서구 가로공원로 188,37.536897624981,126.836932420923,강서구
0,서울 강서구 곰달래로49길 112,37.5360506436133,126.855071916561,강서구
0,서울 강서구 화곡동 981-15,37.5496863881035,126.848490914984,강서구
0,서울 강서구 강서로18바길 2,37.5352283830442,126.850156326088,강서구
0,서울 강서구 화곡동 404-6,37.5389265387242,126.842608724659,강서구
0,서울 강서구 가로공원로76길 100,37.5328236634124,126.83883535208,강서구
0,서울 강서구 화곡동 1098-9,37.5532908360913,126.849978820401,강서구
0,서울 강서구 화곡동 504-87,37.5372069771961,126.859386526393,강서구
0,서울 강서구 양천로6길 57,37.5696141327872,126.807965922895,강서구
0,서울 강서구 양천로 401,37.5657010514328,126.84764409296,강서구
0,서울 강서구 방화대로6라길 26,37.5561429082759,126.818506916254,강서구
0,서울 강서구 화곡동 898-1,37.5303689262431,126.847201562261,강서구
0,서울 강서구 화곡동 902-10,37.5294724217463,126.846708090395,강서구
0,서울 강서구 화곡동 98-253,37.5412869033303,126.84493729354,강서구
0,서울 강서구 등촌동 366-137,37.5491939527155,126.8605999866,강서구
0,서울 강서구 등촌동 696-1,37.5599241914472,126.845536107965,강서구
0,서울 강서구 공항동 1354-6,37.5550559685569,126.816829391642,강서구
0,서울 강서구 방화동 830,37.5781891593388,126.813302358444,강서구
0,서울 강서구 화곡동 55-88,37.5409098457291,126.848485253783,강서구
0,서울 강서구 화곡동 70-33,37.545084092474,126.84509011263,강서구
0,서울 강서구 화곡동 353-1,37.5342988189663,126.842943052929,강서구
0,서울 강서구 등촌동 683,37.5662199377694,126.841554457257,강서구
0,서울 강서구 공항대로41길 76,37.5609642709512,126.846826834173,강서구
0,서울 강서구 곰달래로 88,37.5301640940002,126.842646371479,강서구
0,서울 강서구 곰달래로16길 29,37.528759099443,126.84038293127,강서구
0,서울 강서구 월정로 112,37.5291607548124,126.838981143061,강서구
0,서울 강서구 강서로5나길 90,37.5285575824148,126.843167780428,강서구
0,서울 강서구 강서로17길 29,37.5325893329322,126.844221597746,강서구
0,서울 강서구 강서로7길 107,37.5288410646222,126.84176976763,강서구
0,서울 강서구 월정로 102,37.5283671968499,126.839542740693,강서구
0,서울 강서구 가로공원로84길 82,37.5341350700269,126.841902272528,강서구
0,서울 강서구 월정로 116,37.5295278075712,126.838772074217,강서구
0,서울 강서구 가로공원로76가길 76,37.5343281531114,126.842914140374,강서구
0,서울 구로구 고척동 41-3,37.5069006922791,126.862602385172,구로구
0,서울 구로구 오류동 46-1,37.4948283467376,126.842024858993,구로구
0,서울 구로구 구로동 235,37.4824973369136,126.894452544874,구로구
0,서울 구로구 구로동 1128-3,37.482893591611,126.898661917508,구로구
0,서울 구로구 구로동 197-13,37.4855097344305,126.89241783691,구로구
0,서울 구로구 구로동 197-12,37.4858896979309,126.891638364568,구로구
0,서울 구로구 고척로33길 60,37.5052464326441,126.848024781802,구로구
0,서울 구로구 구로동 615-3,37.5046475993687,126.875146773347,구로구
0,서울 구로구 우마길 1,37.4825593377162,126.887531176148,구로구
0,서울 구로구 고척로19길 16,37.5019822198583,126.845346016628,구로구
0,서울 구로구 디지털로32가길 72,37.4805689796141,126.896983398265,구로구
0,서울 구로구 신도림동 399,37.5062081271213,126.876678813691,구로구
0,서울 구로구 구로동 685-215,37.4920193437441,126.875803744591,구로구
0,서울 구로구 신도림동 641,37.5119722191003,126.884254440618,구로구
0,서울 구로구 공원로6가길 52,37.5036644182655,126.890104330998,구로구
0,서울 구로구 경인로15길 80-4,37.4972258993876,126.837032519771,구로구
0,서울 구로구 디지털로 300,37.4849270383011,126.896538036905,구로구
0,서울 구로구 경인로 662,37.5081230677129,126.888212953215,구로구
0,서울 구로구 경인로 661,37.5090492151745,126.8869873429,구로구
0,서울 구로구 신도림로 16,37.5051228166042,126.88219103785,구로구
0,서울 구로구 경인로35길 38,37.498918512641,126.854333096922,구로구
0,서울 구로구 경인로43길 18,37.4974325838784,126.862072964786,구로구
0,서울 구로구 경인로40길 41,37.4950263686092,126.859029376899,구로구
0,서울 구로구 경인로 661,37.5090492151745,126.8869873429,구로구
0,서울 구로구 경인로47길 10,37.5001643217148,126.867164896914,구로구
0,서울 구로구 오류동 183-8,37.4876042406683,126.838811448544,구로구
0,서울 구로구 구로동 84,37.4939782894083,126.887661172949,구로구
0,서울 구로구 구로동 1124-44,37.4847358658965,126.900871915769,구로구
0,서울 구로구 구로동 1128-3,37.482893591611,126.898661917508,구로구
0,서울 구로구 구로동 222-8,37.4828913983123,126.896033752845,구로구
0,서울 구로구 구로동 235-2,37.481535407894,126.893434985592,구로구
0,서울 구로구 구일로10길 49,37.495744201061,126.874445893777,구로구
0,서울 구로구 고척동 339-1,37.5070901583952,126.859525372383,구로구
0,서울 구로구 중앙로14길 31,37.5076133389724,126.863104491675,구로구
0,서울 구로구 구일로 110,37.4950748401596,126.87200783297,구로구
0,서울 금천구 시흥대로153길 42,37.4772030155489,126.896086177402,금천구
0,서울 금천구 시흥대로138길 13,37.4729246808034,126.899334678508,금천구
0,서울 금천구 금하로 657,37.4536355669892,126.904000786718,금천구
0,서울 금천구 독산로72길 50,37.4683329576885,126.904552969885,금천구
0,서울 금천구 독산로29길 13,37.4560521315995,126.904728846171,금천구
0,서울 금천구 독산로106길 19,37.4780505747285,126.904944223576,금천구
0,서울 금천구 가산로5길 66,37.4736681895461,126.891001791729,금천구
0,서울 금천구 시흥대로 406,37.4696555940555,126.898443529102,금천구
0,서울 금천구 시흥대로141길 47,37.4749455261473,126.897518617066,금천구
0,서울 금천구 가산디지털1로 2,37.466834192886,126.887999661463,금천구
0,서울 금천구 독산로75길 34,37.4692587800309,126.90055164426,금천구
0,서울 금천구 금하로24가길 4,37.4490870164608,126.908706692735,금천구
0,서울 금천구 벚꽃로 234,37.4759973021269,126.88613236531,금천구
0,서울 영등포구 당산동6가 324-5,37.5355874416896,126.902469661436,영등포구
0,서울 영등포구 대림1동 868-15,37.4925681072122,126.90365923762,영등포구
0,서울 영등포구 문래동3가 77-2,37.5175839837132,126.892997679027,영등포구
0,서울 영등포구 양평동5가 106-1,37.5399857500722,126.89428760503,영등포구
0,서울 영등포구 영등포동1가 54,37.5173735121925,126.913209735508,영등포구
0,서울 영등포구 여의도동 44-5,37.5206054667141,126.930448752,영등포구
0,서울 영등포구 여의도동 43,37.5214296371217,126.930641425487,영등포구
1,서울 영등포구 여의도동 43-4,37.5201951845945,126.931743565817,영등포구
0,서울 영등포구 여의도동 41-2,37.5210899922879,126.934324634093,영등포구
0,서울 영등포구 선유동1로 12-1,37.5232112418788,126.891861564422,영등포구
0,서울 영등포구 디지털로54가길 2,37.4888178446615,126.902998281977,영등포구
0,서울 영등포구 대림동 962-4,37.491018177425,126.907584966863,영등포구
0,서울 영등포구 대림로29길 43,37.493770961335,126.895406910107,영등포구
0,서울 영등포구 대림3동 710,37.494481241821,126.898316065596,영등포구
0,서울 영등포구 문래동3가 55-5,37.5174282293181,126.896467504418,영등포구
0,서울 영등포구 도림로 441-1,37.5144398830693,126.893841228093,영등포구
0,서울 영등포구 경인로 775,37.5147464245043,126.897536835727,영등포구
0,서울 영등포구 경인로114가길 4,37.5181395828305,126.914000440734,영등포구
0,서울 영등포구 양산로7길 3,37.5258156794269,126.887144078858,영등포구
0,서울 영등포구 양평동4가 161-6,37.5372658851361,126.897125181928,영등포구
0,서울 영등포구 여의도동 61-5,37.5194102234997,126.93862609475,영등포구
0,서울 영등포구 영등포동8가 48-1,37.5271510368572,126.906401298625,영등포구
0,서울 영등포구 영등포동7가 69-9,37.5242543276797,126.904725898846,영등포구
0,서울 영등포구 영등포동4가 65-3,37.5190896397983,126.90499750219,영등포구
0,서울 영등포구 대림로29길 24,37.4950186159854,126.896876820116,영등포구
0,서울 영등포구 도신로60길 2,37.511784488477,126.916830327223,영등포구
0,서울 영등포구 도림로 322,37.5063427806294,126.901914175609,영등포구
0,서울 영등포구 국제금융로2길 7,37.5246490570692,126.926838629184,영등포구
0,서울 영등포구 당산동6가 306-1,37.5349246591484,126.902243674278,영등포구
0,서울 영등포구 영중로 15,37.5172332566615,126.903715993779,영등포구
0,서울 동작구 동작대로17길 10,37.4828561132123,126.980811268123,동작구
0,서울 동작구 사당동 1030-10,37.4799982115429,126.98086445854,동작구
0,서울 동작구 사당동 71-1,37.4909820791452,126.981084529697,동작구
0,서울 동작구 동작대로35길 18,37.4911178193003,126.981389462052,동작구
0,서울 동작구 사당동 67-6,37.4922683237374,126.97927337486,동작구
0,서울 동작구 사당로23길 2,37.4841921572999,126.977405497956,동작구
0,서울 동작구 사당동 1132,37.4907773085387,126.972512085381,동작구
0,서울 동작구 사당동 202-28,37.4877997031738,126.964862777517,동작구
0,서울 동작구 흑석동 52-1,37.5077220115034,126.963299317305,동작구
0,서울 동작구 노량진동 50-2,37.5121240355936,126.940480244413,동작구
0,서울 동작구 노량진동 231-112,37.5084566805031,126.940308073915,동작구
0,서울 동작구 노량진동 244-12,37.5118706268798,126.938976794365,동작구
0,서울 동작구 노량진동 244-67,37.5122309221948,126.938252043931,동작구
0,서울 동작구 노량진동 71-4,37.5134190573068,126.941945798332,동작구
0,서울 동작구 상도동 450,37.5047906409576,126.933985374094,동작구
0,서울 동작구 상도동 211-225,37.4990556560169,126.944318201184,동작구
0,서울 동작구 노량진동 201,37.5125648033859,126.947706852905,동작구
0,서울 동작구 동작동 102-31,37.496405521671,126.982316458159,동작구
0,서울 동작구 신대방동 360-115,37.4968853654982,126.925595892516,동작구
0,서울 동작구 여의대방로22길 78,37.497706255944,126.924293682807,동작구
0,서울 동작구 현충로 257,37.5028703671011,126.980268385443,동작구
0,서울 동작구 대방동 393-65,37.500003685009,126.928261939313,동작구
0,서울 동작구 대방동 400-3,37.499477678864,126.920655071507,동작구
0,서울 동작구 대방동 37-2,37.5117567394597,126.931732135835,동작구
0,서울 동작구 신대방동 395-69,37.4913316020645,126.924104833984,동작구
0,서울 동작구 대방동 376-5,37.5044479471645,126.925151044649,동작구
0,서울 동작구 대방동 405-11,37.4994660150796,126.927900795728,동작구
0,서울 동작구 상도동 509-2,37.4945616644954,126.960551773361,동작구
0,서울 동작구 사당동 272-38,37.4829143152518,126.971063000119,동작구
0,서울 관악구 솔밭로 5,37.478183524472,126.962569741548,관악구
1,인천 연수구 솔밭로 5,37.41462494085,126.653199141571,관악구
2,대전 중구 솔밭로 5,36.3164538611796,127.418438918119,관악구
3,경남 진주시 솔밭로 5,35.1694026495258,128.107497653335,관악구
0,서울 관악구 봉천로4길 58,37.4871963341071,126.924380160206,관악구
0,서울 관악구 호암로20길 1,37.467793136754,126.932163482267,관악구
0,서울 관악구 관악로29길 6-14,37.4870208344099,126.956861966625,관악구
0,서울 관악구 조원로 87,37.4846038989184,126.911943662258,관악구
1,경기 수원시 장안구 조원로 87,37.3007884172659,127.015747155262,관악구
0,서울 관악구 양지5길 2,37.4715572281427,126.931278994466,관악구
1,울산 동구 양지5길 2,35.4955141882678,129.420263861627,관악구
0,서울 관악구 남부순환로 1536,37.4827774089254,126.921313240377,관악구
0,서울 관악구 봉천로 604-1,37.4758441087801,126.964203396611,관악구
0,서울 관악구 관악로17길 25,37.4806955912288,126.95025710316,관악구
0,서울 관악구 관악로 125,37.4764721426091,126.952079961311,관악구
0,서울 관악구 남부순환로218길 46,37.4793834533004,126.950047344898,관악구
0,서울 관악구 관악로30길 17,37.4865570381086,126.959006254254,관악구
0,서울 관악구 승방2길 2,37.4739629644835,126.981338773995,관악구
0,서울 관악구 남부순환로245길 9,37.4771749623381,126.965012915475,관악구
0,서울 관악구 승방4길 27,37.4748763530926,126.980439446302,관악구
0,서울 관악구 은천로 143,37.4866312249968,126.951265478693,관악구
0,서울 관악구 봉천로21나길 35,37.4888721487085,126.936188701018,관악구
0,서울 관악구 관악로14가길 45,37.4764454785134,126.955552548346,관악구
0,서울 관악구 봉천로6길 30,37.488339342599,126.925498986348,관악구
0,서울 관악구 남부순환로 1578,37.48351417723,126.925933989055,관악구
0,서울 관악구 신림로 304,37.481363738335,126.93022385624,관악구
0,서울 관악구 인헌길 141,37.4695602744384,126.968610125347,관악구
0,서울 관악구 난곡로 288,37.4796720588673,126.915159984678,관악구
0,서울 관악구 남부순환로 1716,37.4825397376028,126.940613730465,관악구
0,서울 관악구 신림로 270,37.478998370514,126.932168278055,관악구
0,서울 관악구 관악로15길 39,37.4803185783904,126.950184316356,관악구
0,서울 관악구 신림로68길 10,37.4864304668985,126.929915779623,관악구
0,서울 관악구 난곡로 348,37.4850359995004,126.914115738058,관악구
0,서울 관악구 봉천로 214,37.4896450285679,126.925270410906,관악구
0,서울 관악구 관악로 154,37.478916799431,126.952620964816,관악구
0,서울 관악구 남부순환로 1766,37.481700832272,126.946114635644,관악구
0,서울 관악구 봉천로 466,37.4820210080697,126.951638187547,관악구
0,서울 관악구 관악로 167,37.4803380590661,126.952192926888,관악구
0,서울 관악구 관악로17길 3,37.4806435864637,126.951517874514,관악구
0,서울 관악구 호암로24길 6,37.469902376597,126.933544333443,관악구
0,서울 관악구 남부순환로153길 35,37.4840565684833,126.916327064641,관악구
0,서울 관악구 봉천로 335,37.485319650701,126.937872018317,관악구
0,서울 관악구 신림로 97,37.4703171796668,126.938668968449,관악구
1,전북 고창군 신림면 신림로 97,35.490823359791,126.70843556095,관악구
0,서울 관악구 신림동길 15,37.4871164726381,126.927051749671,관악구
0,서울 관악구 조원로 6,37.4834043794316,126.902743197396,관악구
0,서울 서초구 염곡동 106-7,37.462049087565,127.052255347167,서초구
0,서울 서초구 사평대로53길 27,37.5054420932301,127.021364858536,서초구
0,서울 서초구 사평대로55길 123,37.5092071224522,127.020346077237,서초구
0,서울 서초구 사평대로53길 103,37.5087049069827,127.019788796777,서초구
0,서울 서초구 사평대로53길 36,37.5059922433965,127.02138492068,서초구
0,서울 서초구 사평대로57길 44,37.5063515752252,127.022772411063,서초구
0,서울 서초구 잠원동 76-7,37.5057901847933,127.001260368069,서초구
0,서울 서초구 반포4동 58-7,37.5037613466669,127.009858856101,서초구
0,서울 서초구 서래로6길 4,37.4976936531468,126.998492674796,서초구
0,서울 서초구 신반포로3길 7,37.5019281397745,126.986316369434,서초구
0,서울 서초구 신반포로 41,37.5019627513887,126.989031376709,서초구
0,서울 서초구 방배로 146,37.4869341519122,126.994411632147,서초구
0,서울 서초구 도구로 77,37.4834270831506,126.986717844823,서초구
0,서울 서초구 방배천로2안길 17,37.477759902831,126.983729079395,서초구
0,서울 서초구 방배천로 5-3,37.4770492449913,126.982257596187,서초구
0,서울 서초구 서초대로 12,37.4851006838562,126.983662134725,서초구
0,서울 서초구 방배3동 477-8,37.4771704261333,126.987083103048,서초구
0,서울 서초구 방배3동 985-20,37.4807513826713,126.999773539607,서초구
0,서울 서초구 방배3동 982-2,37.4796809731257,126.998395692892,서초구
0,서울 서초구 서초대로27길 57,37.4904748816288,126.99342229908,서초구
0,서울 서초구 동광로12가길 26,37.4874503156477,126.983536566843,서초구
0,서울 서초구 사평대로6길 7,37.4977617010104,126.990930483088,서초구
0,서울 서초구 방배중앙로 185,37.4955690256417,126.985626706086,서초구
0,서울 서초구 방배중앙로29길 25,37.4964008107251,126.984033868901,서초구
0,서울 서초구 동광로 9,37.4910229730168,126.984057855025,서초구
0,서울 서초구 사임당로17길 113,37.4933625596371,127.018795301601,서초구
0,서울 서초구 서초동 1679-5,37.4952328933874,127.020805697439,서초구
0,서울 서초구 서초동 1635-6,37.4933119004012,127.021565172107,서초구
0,서울 서초구 효령로72길,37.4868089730459,127.027214414789,서초구
0,서울 서초구 서초2동 1327-1,37.4958283857722,127.027353048081,서초구
0,서울 서초구 서초동 1344-29,37.4869975106308,127.027010957155,서초구
0,서울 서초구 서초3동 1454-3,37.4827490795889,127.01475468874,서초구
0,서울 서초구 서초3동 1467-65,37.4803425282391,127.00764025491,서초구
0,서울 서초구 서초동 1568-5,37.4906223412261,127.013392320811,서초구
0,서울 서초구 서초3동 1600-7,37.4861237570231,127.015148944547,서초구
0,서울 서초구 서초3동 1593-7,37.4865565088724,127.012891263098,서초구
0,서울 서초구 서초3동 1589-12,37.4858569035747,127.013451961645,서초구
0,서울 서초구 서초대로77길 27,37.5001249784617,127.025502769716,서초구
0,서울 서초구 서초대로73길 54,37.5020135169887,127.024071206653,서초구
0,서울 서초구 강남대로61길 25,37.4984422182507,127.023977667952,서초구
0,서울 서초구 양재1동 13-14,37.4831006917704,127.036565170137,서초구
0,서울 서초구 양재1동 8-71,37.483551660257,127.038229930171,서초구
0,서울 서초구 우면동 721-1,37.4645289045672,127.025545157542,서초구
0,서울 서초구 양재대로11길 19,37.4611892564712,127.03396585872,서초구
0,서울 서초구 논현로5길 18,37.4721120164136,127.048918743533,서초구
0,서울 서초구 양재2동 242-8,37.4720597022461,127.03942644969,서초구
0,서울 서초구 양재동 254-5,37.4738336842228,127.042590864616,서초구
0,서울 서초구 신반포로 329,37.5108041146939,127.019505342,서초구
0,서울 서초구 신반포로43길 23-4,37.5112556631898,127.017423167003,서초구
0,서울 강남구 역삼동 703-8,37.5043179832847,127.044640852536,강남구
0,서울 강남구 역삼1동 825-20,37.4977268810805,127.029297352877,강남구
0,서울 강남구 선릉로10길 4,37.4831153716059,127.060667855034,강남구
0,서울 강남구 대치동 891-42,37.5056262790768,127.055214154704,강남구
0,서울 강남구 대치동 943-24,37.5068836547432,127.059436764083,강남구
0,서울 강남구 대치동 961-13,37.5026806910967,127.059166191879,강남구
0,서울 강남구 대치동 932-36,37.4998724542181,127.059667789372,강남구
0,서울 강남구 대치동 907,37.5011730477771,127.050823495362,강남구
0,서울 강남구 대치동 889-75,37.5033033318556,127.050317710103,강남구
0,서울 강남구 역삼동 708,37.5037148140602,127.047505760673,강남구
1,서울 강남구 역삼동 708-26,37.5035489338112,127.04906138989,강남구
0,서울 강남구 삼성동 37-16,37.5108817576299,127.044763183356,강남구
0,서울 강남구 신사동 613-3,37.527232663137,127.030143566815,강남구
0,서울 강남구 역삼동 774-4,37.4960128685056,127.042695167814,강남구
0,서울 강남구 역삼동 788-26,37.4934723129944,127.041902389354,강남구
0,서울 강남구 역삼동 722,37.5005715581119,127.04231099391,강남구
0,서울 강남구 역삼동 835-6,37.4913322958832,127.035097151965,강남구
0,서울 강남구 역삼동 689-34,37.5070300376569,127.04082544821,강남구
0,서울 강남구 역삼동 736-24,37.4985434308082,127.03504104269,강남구
0,서울 강남구 역삼동 735-11,37.4988386931716,127.033478645633,강남구
0,서울 강남구 역삼동 705,37.5047616293348,127.046987196588,강남구
0,서울 강남구 역삼동 837-2,37.4917121565043,127.031600532854,강남구
0,서울 강남구 역삼동 735-32,37.4990854674891,127.034147672728,강남구
0,서울 강남구 역삼동 761-2,37.4969460055759,127.04637435433,강남구
0,서울 강남구 역삼동 837-8,37.4904549729741,127.032295868164,강남구
0,서울 강남구 역삼동 627,37.5042744422695,127.034174917079,강남구
0,서울 강남구 역삼동 797-16,37.4944512289836,127.039633961043,강남구
0,서울 강남구 역삼동 790-20,37.494705057768,127.037659689915,강남구
0,서울 강남구 역삼동 677-25,37.5023662011258,127.040716940362,강남구
0,서울 강남구 역삼동 649-4,37.4998791918219,127.030418457714,강남구
0,서울 강남구 도곡동 543-7,37.4922748332904,127.043511837517,강남구
0,서울 강남구 논현동 203-1,37.5058897147799,127.02822293999,강남구
0,서울 강남구 논현동 118,37.5171415650387,127.038935140723,강남구
0,서울 강남구 대치동 921-17,37.499143711288,127.05247366174,강남구
0,서울 강남구 역삼동 730-13,37.4987265713626,127.04304954641,강남구
0,서울 강남구 논현동 192-19,37.5074825958242,127.033424597836,강남구
0,서울 강남구 삼성동 166,37.5127853432285,127.064879719376,강남구
1,서울 강남구 삼성동 166-7,37.5119134904691,127.065444389461,강남구
0,서울 강남구 봉은사로37길 13,37.509211897222,127.036460727853,강남구
0,서울 강남구 논현동 229-26,37.5088398849703,127.034313400498,강남구
0,서울 강남구 도곡동 411-16,37.485729919337,127.044701814395,강남구
0,서울 강남구 남부순환로365길 56,37.4890398438128,127.040241696489,강남구
0,서울 강남구 삼성로119길 37,37.5153090552164,127.048554650867,강남구
0,서울 강남구 논현로153길 46,37.5205172784023,127.024438796175,강남구
0,서울 강남구 역삼동 789-30,37.4941160128211,127.035515383262,강남구
0,서울 강남구 도곡로21길 18,37.4932872141045,127.038831838501,강남구
0,서울 강남구 청담동 16-19,37.5206841930406,127.043892691669,강남구
0,서울 강남구 청담동 21-9,37.5226425153856,127.042181371091,강남구
0,서울 강남구 테헤란로77길 7,37.506926132627,127.054495003994,강남구
0,서울 강남구 테헤란로33길 7,37.5022997430758,127.039279604284,강남구
0,서울 강남구 테헤란로37길 41,37.5049602876581,127.039652861406,강남구
0,서울 강남구 삼성로145길 16,37.5225885608195,127.04691771684,강남구
0,서울 강남구 강남대로110길 26,37.503630921931,127.026947168701,강남구
0,서울 강남구 개포로22길 40,37.4765386857141,127.049334502878,강남구
0,서울 강남구 개포로25길 15,37.4799859559309,127.048001650211,강남구
0,서울 강남구 개포로 508,37.4892333041022,127.067955632075,강남구
0,서울 강남구 언주로147길 10,37.5199949338852,127.033404726431,강남구
0,서울 강남구 논현로8길 21,37.4744611153193,127.050453586877,강남구
0,서울 강남구 봉은사로26길 26,37.5054381486869,127.033659042895,강남구
0,서울 강남구 테헤란로63길 17,37.5063963316149,127.050037829548,강남구
0,서울 강남구 개포로20길 12,37.4779377200038,127.047260612329,강남구
0,서울 강남구 일원로5길 6,37.490665282003,127.081479404781,강남구
0,서울 강남구 봉은사로30길 78,37.5024863507874,127.037018400213,강남구
0,서울 강남구 논현로93길 3,37.5018629312153,127.035894971552,강남구
0,서울 강남구 논현로146길 11,37.5182213409132,127.029925471554,강남구
0,서울 강남구 논현동 254-22,37.5136727146898,127.041023502775,강남구
0,서울 강남구 논현로63길 19,37.4924661549789,127.039290058825,강남구
0,서울 강남구 논현로72길 13,37.4958440607421,127.040532805045,강남구
0,서울 강남구 언주로108길 6,37.5078285878835,127.040066520139,강남구
0,서울 강남구 삼성로107길 31,37.5107775334633,127.051559539697,강남구
0,서울 강남구 역삼로3길 10,37.4942572237962,127.031629083812,강남구
0,서울 강남구 개포동 12-4,37.4926948167159,127.075628436058,강남구
0,서울 강남구 논현동 175-1,37.5105761214518,127.032066561378,강남구
0,서울 강남구 논현동 183-11,37.5068475013339,127.025778645211,강남구
0,서울 강남구 논현동 278-19,37.5101683452307,127.042561508746,강남구
0,서울 강남구 논현동 86-4,37.515306469526,127.031783541219,강남구
0,서울 강남구 대치동 891-26,37.5046327843377,127.05375187573,강남구
0,서울 강남구 대치동 891-6,37.5056878366523,127.05400382324,강남구
0,서울 강남구 대치동 943-24,37.5068836547432,127.059436764083,강남구
0,서울 강남구 대치동 946,37.5082139661208,127.062278149239,강남구
0,서울 강남구 대치동 651,37.4922080930914,127.057381137664,강남구
0,서울 강남구 대치동 670-1,37.4912608104274,127.05560929688,강남구
0,서울 강남구 대치동 890-59,37.5041511272273,127.052097616411,강남구
0,서울 강남구 대치동 940-6,37.4988037246152,127.058317009902,강남구
0,서울 강남구 도곡동 942-11,37.4896060095693,127.033390623813,강남구
0,서울 강남구 삼성동 36-25,37.5116279945021,127.044934420811,강남구
0,서울 강남구 삼성동 160-22,37.5135316498895,127.061846980951,강남구
0,서울 강남구 신사동 610-4,37.526317973736,127.029033399992,강남구
0,서울 강남구 신사동 590-22,37.5209190518644,127.028394548762,강남구
0,서울 강남구 신사동 636-2,37.5276096909253,127.033949115548,강남구
0,서울 강남구 신사동 657-28,37.5259951795048,127.038382129595,강남구
0,서울 강남구 역삼동 659-20,37.5056712521419,127.035461027599,강남구
0,서울 강남구 역삼동 827-70,37.4956047178242,127.031822119332,강남구
0,서울 강남구 역삼동 831-3,37.4947879644265,127.030066743907,강남구
0,서울 강남구 역삼동 719-9,37.5010986468383,127.040247488732,강남구
0,서울 강남구 역삼동 720-25,37.5014564802212,127.042688993712,강남구
0,서울 강남구 청담동 21-17,37.5220699781145,127.041532062594,강남구
0,서울 강남구 삼성동 152,37.5108552843704,127.055738180658,강남구
0,서울 강남구 역삼동 816-4,37.4998289210288,127.027453912849,강남구
0,서울 강남구 개포동 168-11,37.4836300369265,127.059765786932,강남구
0,서울 강남구 개포2동 186-17,37.4892717287411,127.068817512528,강남구
0,서울 강남구 논현동 203-1,37.5058897147799,127.02822293999,강남구
0,서울 강남구 논현1동 139,37.5111995647155,127.025639098071,강남구
0,서울 강남구 논현동 113-16,37.5170130043093,127.037504391821,강남구
0,서울 강남구 논현동 273-13,37.510589129474,127.039401464438,강남구
0,서울 강남구 대치동 960-15,37.5040639365775,127.059660154658,강남구
0,서울 강남구 대치동 511,37.4933931510549,127.067350014658,강남구
0,서울 강남구 삼성동 27-17,37.5140150070307,127.048399755664,강남구
0,서울 강남구 삼성동 41-21,37.5121590993678,127.046884494138,강남구
0,서울 강남구 개포동 196,37.4887618745114,127.073992267124,강남구
0,서울 강남구 역삼동 773,37.4973425330562,127.0442750522,강남구
0,서울 강남구 역삼동 813-18,37.5019481619783,127.026734402291,강남구
0,서울 강남구 역삼2동 708-34,37.5029307482512,127.048857642314,강남구
0,서울 강남구 역삼동 827-44,37.4969700698309,127.030930457652,강남구
0,서울 강남구 청담동 72-3,37.5200813707295,127.05595159976,강남구
0,서울 강남구 테헤란로68길 33,37.5032004767275,127.053108472486,강남구
0,서울 강남구 개포로28길 15,37.4780786102961,127.049955856583,강남구
0,서울 강남구 선릉로 641,37.5137539900082,127.042287442465,강남구
0,서울 강남구 언주로 517,37.504331825662,127.041519859513,강남구
0,서울 강남구 삼성동 106-6,37.5151741679789,127.060653529072,강남구
0,서울 송파구 가락동 194-2,37.4947536672257,127.131891578325,송파구
0,서울 송파구 문정동 121-7,37.4883853478999,127.131975248519,송파구
0,서울 송파구 방이동 211-6,37.5103160668619,127.121241268109,송파구
0,서울 송파구 오금동 72-9,37.5045349891094,127.134760508702,송파구
0,서울 송파구 잠실3동 40,37.5111038313694,127.093918656887,송파구
0,서울 송파구 잠실동 337-3,37.5040424821096,127.086232423373,송파구
0,서울 송파구 방이동 162,37.5120469948721,127.120968424396,송파구
0,서울 송파구 장지동 99-7,37.4843816092027,127.130616162399,송파구
0,서울 송파구 방이동 107-3,37.5122154525185,127.112804222367,송파구
0,서울 송파구 방이동 203-4,37.5100994624684,127.124876558084,송파구
0,서울 송파구 방이동 122-7,37.5103220617934,127.116994067119,송파구
0,서울 송파구 삼전동 16,37.5065363523413,127.091413663072,송파구
0,서울 송파구 삼전동 120,37.5032258728325,127.095521514642,송파구
0,서울 송파구 삼전동 69-13,37.4993399171991,127.090966332007,송파구
0,서울 송파구 석촌동 245-27,37.5015158317807,127.101281705873,송파구
0,서울 송파구 송파동 17-10,37.5069362047413,127.108075482902,송파구
0,서울 송파구 장지동,37.4785083981104,127.136582139995,송파구
0,서울 송파구 장지동 878,37.4809304460561,127.140764483752,송파구
0,서울 송파구 오금동 58-10,37.5021302247906,127.133793541026,송파구
0,서울 송파구 마천동 47-7,37.4999033901047,127.148211517849,송파구
0,서울 송파구 문정동 76-1,37.4802841012985,127.126972686609,송파구
0,서울 송파구 문정동 61-7,37.485529151797,127.124591989307,송파구
0,서울 송파구 잠실동 10-1,37.5136559100366,127.073466781511,송파구
0,서울 송파구 송파동 180-4,37.5010213476423,127.114606676449,송파구
0,서울 송파구 송파동 148-3,37.5059225456415,127.117630957737,송파구
0,서울 송파구 방이동 112,37.5112989985743,127.11425501888,송파구
0,서울 송파구 방이동 49-5,37.515293626462,127.113571687013,송파구
0,서울 송파구 삼전동 46,37.502945669539,127.089289676844,송파구
0,서울 송파구 가락동 120,37.4927379916656,127.124875351569,송파구
0,서울 송파구 가락동 57,37.4967171049833,127.122205490605,송파구
0,서울 송파구 가락동 175-13,37.4966764112476,127.13657281432,송파구
0,서울 송파구 석촌동 285-4,37.5042345101741,127.105620007238,송파구
0,서울 송파구 석촌동 182,37.5074567728668,127.10327736563,송파구
0,서울 송파구 삼전동 22-20,37.5067006326804,127.093906015058,송파구
0,서울 송파구 거여동 348,37.4919847716068,127.144532952139,송파구
0,서울 송파구 방이동 70,37.5135045546915,127.109995380544,송파구
0,서울 송파구 석촌동 211-5,37.5017781254875,127.09860629734,송파구
0,서울 송파구 송파동 195-6,37.5001379962217,127.112456168319,송파구
0,서울 송파구 송파동 100-1,37.503365070932,127.115778865764,송파구
0,서울 송파구 잠실동 231-4,37.5077313038959,127.084965069096,송파구
0,서울 송파구 송파동 132-16,37.5073543342043,127.111688068393,송파구
0,서울 송파구 잠실동 203,37.5096082640731,127.082439659571,송파구
0,서울 송파구 오금동 46-4,37.5044908965729,127.127401704441,송파구
0,서울 송파구 방이동 89-11,37.515826090146,127.132217998733,송파구
0,서울 송파구 잠실동 228-9,37.5064703204829,127.081421594503,송파구
0,서울 송파구 잠실동 245-16,37.5063595124421,127.088778915201,송파구
0,서울 송파구 장지동 841-3,37.4774647263299,127.127333990314,송파구
0,서울 송파구 문정동 150,37.4885199252165,127.114377260406,송파구
0,서울 송파구 잠실동 206,37.5097777982718,127.084023532993,송파구
0,서울 송파구 문정동 618,37.4806047633012,127.12366621502,송파구
0,서울 송파구 문정동 63-9,37.4853912709826,127.12606107284,송파구
0,서울 송파구 풍납2동 265-7,37.5297565823376,127.114620194431,송파구
0,서울 송파구 잠실동 297-3,37.5053645988338,127.080777546403,송파구
0,서울 송파구 올림픽로32길 3,37.5157151944277,127.108993500469,송파구
0,서울 강동구 성내로9길 35,37.5304828019329,127.125083969543,강동구
0,서울 강동구 천호옛12길 18,37.5347182661437,127.125470295107,강동구
0,서울 강동구 풍성로37길 41,37.5337186980892,127.126313892782,강동구
0,서울 강동구 성안로13길 38,37.5318938709264,127.130240879041,강동구
0,서울 강동구 천호대로162길 34,37.5355771394189,127.127952286718,강동구
0,서울 강동구 천호대로170길 66,37.5326015840551,127.132046446505,강동구
0,서울 강동구 양재대로95길 47,37.5306052985007,127.134229614631,강동구
0,서울 강동구 양재대로 1367,37.5283077805775,127.135932437159,강동구
0,서울 강동구 양재대로81길 30,37.5232110978979,127.13267266843,강동구
0,서울 강동구 천중로35길 66,37.5440001099441,127.1385903293,강동구
0,서울 강동구 상암로 162,37.5457699100891,127.140447031008,강동구
0,서울 강동구 구천면로33길 11,37.5423544454938,127.13035299084,강동구
0,서울 강동구 올림픽로 651,37.5397559555383,127.123313958545,강동구
0,서울 강동구 천호2동 416-19,37.539282560917,127.125884712924,강동구
0,서울 강동구 올림픽로 659,37.5403046724091,127.123564698301,강동구
0,서울 강동구 천호2동 429-2,37.5398903990654,127.124160087657,강동구
0,서울 강동구 천중로35길 11,37.5417908615273,127.137278308606,강동구
0,서울 강동구 고덕로20마길 29,37.5521988609805,127.132039594302,강동구
0,서울 강동구 암사길 54,37.5518260936678,127.135324197997,강동구
0,서울 강동구 올림픽로98길 50,37.549964735773,127.129610187817,강동구
0,서울 강동구 구천면로 361,37.5505681135919,127.138746323612,강동구
0,서울 강동구 구천면로47가길 33,37.5489656981714,127.132862813326,강동구
0,서울 강동구 암사동 442,37.5552136174359,127.131294916319,강동구
1,서울 강동구 암사동 442-1,37.5552096720912,127.131924490362,강동구
0,서울 강동구 암사3동 400-5,37.5558394004293,127.138052720658,강동구
0,서울 강동구 천호대로198길 32,37.5345360499344,127.148061552228,강동구
0,서울 강동구 양재대로 1465,37.5368399179472,127.139314330701,강동구
0,서울 강동구 진황도로 100,37.5353900400256,127.137382093544,강동구
0,서울 강동구 양재대로114길 31,37.5376129906087,127.141799896187,강동구
0,서울 강동구 명일로 275,37.5433311129614,127.147591698664,강동구
0,서울 강동구 양재대로113길 22,37.5382684822638,127.138753741155,강동구
0,서울 강동구 천중로49길 26,37.5420812288519,127.143142093315,강동구
0,서울 강동구 천호대로 1203,37.5354021873126,127.144713101462,강동구
0,서울 강동구 명일로 210,37.5372967238805,127.14609997028,강동구
0,서울 강동구 고덕로38길 64,37.5517010644161,127.142423768137,강동구
0,서울 강동구 양재대로128길 47,37.5445074077061,127.145452866115,강동구
0,서울 강동구 양재대로 1655,37.5533530158301,127.143932300441,강동구
0,서울 강동구 동남로75길 13-25,37.5530682649558,127.155472908009,강동구
0,서울 강동구 동남로81길 44,37.560018557384,127.154508566649,강동구
0,서울 강동구 동남로81길 10,37.5606882033771,127.15613274121,강동구
0,서울 강동구 상일동 437-8,37.5464244725852,127.171307336661,강동구
0,서울 강동구 강일동 670,37.5675089335842,127.178202563017,강동구
0,서울 강동구 천호대로168길 25,37.5346869543419,127.132845397688,강동구
0,서울 강동구 명일로 200-34,37.5369495029111,127.147674049154,강동구
0,서울 강동구 풍성로 135,37.5315617197689,127.127221348861,강동구
0,서울 강동구 천호대로 1034,37.5372073343198,127.12676817356,강동구
